STARLINK-1368
1 15540C 20025K   21326.15296465 -.00019282  00000-0 -12917-2 0  3269
2 15540  53.0528 308.0619 0001962  67.2501 230.0266 15.06424909    19
